[{"OBJECT_NAME":"OBJECT M","OBJECT_ID":"2025-155M","EPOCH":"2026-03-09T22:37:12.666144","MEAN_MOTION":15.33288683,"ECCENTRICITY":0.00088001,"INCLINATION":97.4429,"RA_OF_ASC_NODE":38.1052,"ARG_OF_PERICENTER":139.1253,"MEAN_ANOMALY":221.0651,"EPHEMERIS_TYPE":0,"CLASSIFICATION_TYPE":"U","NORAD_CAT_ID":64887,"ELEMENT_SET_NO":999,"REV_AT_EPOCH":6565,"BSTAR":0.00087834095,"MEAN_MOTION_DOT":0.00028279,"MEAN_MOTION_DDOT":0},{"OBJECT_NAME":"STARLINK-35668","OBJECT_ID":"2025-257X","EPOCH":"2026-03-09T16:45:06.030144","MEAN_MOTION":15.3019202,"ECCENTRICITY":0.00010004,"INCLINATION":53.1575,"RA_OF_ASC_NODE":217.058,"ARG_OF_PERICENTER":83.995,"MEAN_ANOMALY":276.1164,"EPHEMERIS_TYPE":0,"CLASSIFICATION_TYPE":"U","NORAD_CAT_ID":66401,"ELEMENT_SET_NO":999,"REV_AT_EPOCH":1973,"BSTAR":0.00086319725,"MEAN_MOTION_DOT":0.00025287,"MEAN_MOTION_DDOT":0}]
